*******************************************************************************
Ephemeris / WWW_USER Mon Mar 10 07:03:14 2025 Pasadena, USA      / Horizons    
*******************************************************************************
Target body name: (2019 AK3)                      {source: JPL#8}
Center body name: Earth (399)                     {source: DE441}
Center-site name: Mauna Kea
*******************************************************************************
Start time      : A.D. 2019-Jan-22 04:17:00.0000 UT      
Stop  time      : A.D. 2019-Jan-22 16:49:00.0000 UT      
Step-size       : 1 minutes
*******************************************************************************
Target pole/equ : undefined
Target radii    : undefined                                                    
Center geodetic : 204.5278, 19.8260847, 4.21024   {E-lon(deg),Lat(deg),Alt(km)}
Center cylindric: 204.5278, 6006.35451, 2151.0229 {E-lon(deg),Dxy(km),Dz(km)}
Center pole/equ : ITRF93                          {East-longitude positive}
Center radii    : 6378.137, 6378.137, 6356.752 km {Equator_a, b, pole_c}       
Target primary  : Sun
Vis. interferer : MOON (R_eq= 1737.400) km        {source: DE441}
Rel. light bend : Sun                             {source: DE441}
Rel. lght bnd GM: 1.3271E+11 km^3/s^2                                          
Small-body perts: Yes                             {source: SB441-N16}
Atmos refraction: NO (AIRLESS)
RA format       : HMS
Time format     : CAL 
Calendar mode   : Mixed Julian/Gregorian
RTS-only print  : NO       
EOP file        : eop.250307.p250603                                           
EOP coverage    : DATA-BASED 1962-JAN-20 TO 2025-MAR-07. PREDICTS-> 2025-JUN-02
Units conversion: 1 au= 149597870.700 km, c= 299792.458 km/s, 1 day= 86400.0 s 
Table cut-offs 1: Elevation (-90.0deg=NO ),Airmass (>38.000=NO), Daylight (YES)
Table cut-offs 2: Solar elongation (  0.0,180.0=NO ),Local Hour Angle( 0.0=NO )
Table cut-offs 3: RA/DEC angular rate (     0.0=NO )                           
*******************************************************************************
Initial IAU76/J2000 heliocentric ecliptic osculating elements (au, days, deg.):
  EPOCH=  2458490.5 ! 2019-Jan-07.00 (TDB)         Residual RMS= .10027        
   EC= .4460441123274964   QR= .8736665173848456   TP= 2458534.5649506859      
   OM= 293.7231565418804   W=  230.0622942544228   IN= 4.899135051513321       
  Equivalent ICRF heliocentric cartesian coordinates (au, au/d):
   X=-2.869453413579581E-01  Y= 8.924440573967301E-01  Z= 3.991223626471717E-01
  VX=-1.652766681412374E-02 VY=-9.271695064707189E-03 VZ=-5.840432387800149E-03
Asteroid physical parameters (km, seconds, rotational period in hours):        
   GM= n.a.                RAD= n.a.               ROTPER= n.a.                
   H= 27.                  G= .150                 B-V= n.a.                   
                           ALBEDO= n.a.            STYP= n.a.                  
*******************************************************************************
 Date__(UT)__HR:MN     R.A._________(ICRF)_________DEC
******************************************************
$$SOE
 2019-Jan-22 12:29  m  17 17 48.197283 -36 58 54.02391
 2019-Jan-22 12:30  m  17 17 48.463121 -36 58 55.06894
 2019-Jan-22 12:31  m  17 17 48.728724 -36 58 56.11421
 2019-Jan-22 12:32  m  17 17 48.994092 -36 58 57.15971
 2019-Jan-22 12:33  m  17 17 49.259226 -36 58 58.20543
 2019-Jan-22 12:34  m  17 17 49.524125 -36 58 59.25138
 2019-Jan-22 12:35  m  17 17 49.788788 -36 59 00.29753
 2019-Jan-22 12:36  m  17 17 50.053216 -36 59 01.34390
 2019-Jan-22 12:37  m  17 17 50.317409 -36 59 02.39046
 2019-Jan-22 12:38  m  17 17 50.581365 -36 59 03.43722
 2019-Jan-22 12:39  m  17 17 50.845086 -36 59 04.48416
 2019-Jan-22 12:40  m  17 17 51.108570 -36 59 05.53129
 2019-Jan-22 12:41  m  17 17 51.371819 -36 59 06.57858
 2019-Jan-22 12:42  m  17 17 51.634830 -36 59 07.62605
 2019-Jan-22 12:43  m  17 17 51.897605 -36 59 08.67368
 2019-Jan-22 12:44  m  17 17 52.160143 -36 59 09.72146
 2019-Jan-22 12:45  m  17 17 52.422445 -36 59 10.76939
 2019-Jan-22 12:46  m  17 17 52.684509 -36 59 11.81746
 2019-Jan-22 12:47  m  17 17 52.946336 -36 59 12.86566
 2019-Jan-22 12:48  m  17 17 53.207925 -36 59 13.91400
 2019-Jan-22 12:49  m  17 17 53.469277 -36 59 14.96246
 2019-Jan-22 12:50  m  17 17 53.730391 -36 59 16.01103
 2019-Jan-22 12:51  m  17 17 53.991267 -36 59 17.05971
 2019-Jan-22 12:52  m  17 17 54.251905 -36 59 18.10849
 2019-Jan-22 12:53  m  17 17 54.512305 -36 59 19.15737
 2019-Jan-22 12:54  m  17 17 54.772467 -36 59 20.20634
 2019-Jan-22 12:55  m  17 17 55.032391 -36 59 21.25539
 2019-Jan-22 12:56  m  17 17 55.292076 -36 59 22.30451
 2019-Jan-22 12:57  m  17 17 55.551522 -36 59 23.35371
 2019-Jan-22 12:58  m  17 17 55.810730 -36 59 24.40297
 2019-Jan-22 12:59  m  17 17 56.069699 -36 59 25.45228
 2019-Jan-22 13:00  m  17 17 56.328429 -36 59 26.50165
 2019-Jan-22 13:01  m  17 17 56.586920 -36 59 27.55105
 2019-Jan-22 13:02  m  17 17 56.845172 -36 59 28.60050
 2019-Jan-22 13:03  m  17 17 57.103185 -36 59 29.64997
 2019-Jan-22 13:04  m  17 17 57.360958 -36 59 30.69947
 2019-Jan-22 13:05  m  17 17 57.618493 -36 59 31.74899
 2019-Jan-22 13:06  m  17 17 57.875788 -36 59 32.79851
 2019-Jan-22 13:07  m  17 17 58.132843 -36 59 33.84804
 2019-Jan-22 13:08  m  17 17 58.389659 -36 59 34.89757
 2019-Jan-22 13:09  m  17 17 58.646235 -36 59 35.94708
 2019-Jan-22 13:10  m  17 17 58.902572 -36 59 36.99658
 2019-Jan-22 13:11  m  17 17 59.158668 -36 59 38.04606
 2019-Jan-22 13:12  m  17 17 59.414526 -36 59 39.09551
 2019-Jan-22 13:13  m  17 17 59.670143 -36 59 40.14492
 2019-Jan-22 13:14  m  17 17 59.925520 -36 59 41.19429
 2019-Jan-22 13:15  m  17 18 00.180658 -36 59 42.24361
 2019-Jan-22 13:16  m  17 18 00.435555 -36 59 43.29288
 2019-Jan-22 13:17  m  17 18 00.690213 -36 59 44.34208
 2019-Jan-22 13:18  m  17 18 00.944631 -36 59 45.39122
 2019-Jan-22 13:19  m  17 18 01.198808 -36 59 46.44028
 2019-Jan-22 13:20  m  17 18 01.452746 -36 59 47.48925
 2019-Jan-22 13:21  m  17 18 01.706443 -36 59 48.53814
 2019-Jan-22 13:22  m  17 18 01.959901 -36 59 49.58693
 2019-Jan-22 13:23  m  17 18 02.213118 -36 59 50.63562
 2019-Jan-22 13:24  m  17 18 02.466095 -36 59 51.68421
 2019-Jan-22 13:25  m  17 18 02.718833 -36 59 52.73267
 2019-Jan-22 13:26  m  17 18 02.971330 -36 59 53.78102
 2019-Jan-22 13:27  m  17 18 03.223587 -36 59 54.82923
 2019-Jan-22 13:28  m  17 18 03.475604 -36 59 55.87732
 2019-Jan-22 13:29  m  17 18 03.727381 -36 59 56.92526
 2019-Jan-22 13:30  m  17 18 03.978918 -36 59 57.97305
 2019-Jan-22 13:31  m  17 18 04.230215 -36 59 59.02069
 2019-Jan-22 13:32  m  17 18 04.481272 -37 00 00.06816
 2019-Jan-22 13:33  m  17 18 04.732089 -37 00 01.11547
 2019-Jan-22 13:34  m  17 18 04.982667 -37 00 02.16260
 2019-Jan-22 13:35  m  17 18 05.233004 -37 00 03.20956
 2019-Jan-22 13:36  m  17 18 05.483102 -37 00 04.25632
 2019-Jan-22 13:37  m  17 18 05.732959 -37 00 05.30289
 2019-Jan-22 13:38  m  17 18 05.982578 -37 00 06.34926
 2019-Jan-22 13:39  m  17 18 06.231956 -37 00 07.39542
 2019-Jan-22 13:40  m  17 18 06.481095 -37 00 08.44137
 2019-Jan-22 13:41  m  17 18 06.729995 -37 00 09.48709
 2019-Jan-22 13:42  m  17 18 06.978655 -37 00 10.53259
 2019-Jan-22 13:43  m  17 18 07.227075 -37 00 11.57786
 2019-Jan-22 13:44  m  17 18 07.475257 -37 00 12.62288
 2019-Jan-22 13:45  m  17 18 07.723199 -37 00 13.66766
 2019-Jan-22 13:46  m  17 18 07.970902 -37 00 14.71218
 2019-Jan-22 13:47  m  17 18 08.218366 -37 00 15.75645
 2019-Jan-22 13:48  m  17 18 08.465591 -37 00 16.80045
 2019-Jan-22 13:49  m  17 18 08.712577 -37 00 17.84417
 2019-Jan-22 13:50  m  17 18 08.959324 -37 00 18.88761
 2019-Jan-22 13:51  m  17 18 09.205833 -37 00 19.93077
 2019-Jan-22 13:52  m  17 18 09.452103 -37 00 20.97363
 2019-Jan-22 13:53  m  17 18 09.698135 -37 00 22.01620
 2019-Jan-22 13:54  m  17 18 09.943928 -37 00 23.05846
 2019-Jan-22 13:55  m  17 18 10.189484 -37 00 24.10040
 2019-Jan-22 13:56  m  17 18 10.434801 -37 00 25.14203
 2019-Jan-22 13:57  m  17 18 10.679880 -37 00 26.18333
 2019-Jan-22 13:58  m  17 18 10.924722 -37 00 27.22430
 2019-Jan-22 13:59  m  17 18 11.169325 -37 00 28.26493
 2019-Jan-22 14:00  m  17 18 11.413692 -37 00 29.30521
 2019-Jan-22 14:01  m  17 18 11.657821 -37 00 30.34514
 2019-Jan-22 14:02  m  17 18 11.901712 -37 00 31.38471
 2019-Jan-22 14:03  m  17 18 12.145367 -37 00 32.42392
 2019-Jan-22 14:04  m  17 18 12.388785 -37 00 33.46276
 2019-Jan-22 14:05  m  17 18 12.631965 -37 00 34.50122
 2019-Jan-22 14:06  m  17 18 12.874910 -37 00 35.53929
 2019-Jan-22 14:07  m  17 18 13.117618 -37 00 36.57698
 2019-Jan-22 14:08  m  17 18 13.360089 -37 00 37.61426
 2019-Jan-22 14:09  m  17 18 13.602325 -37 00 38.65115
 2019-Jan-22 14:10  m  17 18 13.844324 -37 00 39.68762
 2019-Jan-22 14:11  m  17 18 14.086088 -37 00 40.72367
 2019-Jan-22 14:12  m  17 18 14.327617 -37 00 41.75931
 2019-Jan-22 14:13  m  17 18 14.568910 -37 00 42.79451
 2019-Jan-22 14:14  m  17 18 14.809967 -37 00 43.82928
 2019-Jan-22 14:15  m  17 18 15.050790 -37 00 44.86360
 2019-Jan-22 14:16  m  17 18 15.291378 -37 00 45.89747
 2019-Jan-22 14:17  m  17 18 15.531732 -37 00 46.93089
 2019-Jan-22 14:18  m  17 18 15.771851 -37 00 47.96385
 2019-Jan-22 14:19  m  17 18 16.011737 -37 00 48.99634
 2019-Jan-22 14:20  m  17 18 16.251388 -37 00 50.02835
 2019-Jan-22 14:21  m  17 18 16.490806 -37 00 51.05988
 2019-Jan-22 14:22  m  17 18 16.729990 -37 00 52.09093
 2019-Jan-22 14:23  m  17 18 16.968941 -37 00 53.12148
 2019-Jan-22 14:24  r  17 18 17.207659 -37 00 54.15153
 2019-Jan-22 14:25  m  17 18 17.446144 -37 00 55.18108
 2019-Jan-22 14:26  m  17 18 17.684397 -37 00 56.21011
 2019-Jan-22 14:27  m  17 18 17.922417 -37 00 57.23862
 2019-Jan-22 14:28  m  17 18 18.160206 -37 00 58.26660
 2019-Jan-22 14:29  m  17 18 18.397762 -37 00 59.29406
 2019-Jan-22 14:30  m  17 18 18.635088 -37 01 00.32097
 2019-Jan-22 14:31  m  17 18 18.872182 -37 01 01.34734
